ENGM,2022,02,01,00,20,METAR ENGM 010020Z 01003KT 340V040 CAVOK M08/M10 Q1003=
ENGM,2022,02,01,00,50,METAR ENGM 010050Z VRB01KT CAVOK M08/M10 Q1002=
ENGM,2022,02,01,01,20,METAR ENGM 010120Z 04002KT CAVOK M08/M10 Q1002=
ENGM,2022,02,01,01,50,METAR ENGM 010150Z 03002KT 9999 FEW040 BKN080 M08/M10 Q1002=
ENGM,2022,02,01,02,20,METAR ENGM 010220Z VRB02KT CAVOK M09/M10 Q1002=
ENGM,2022,02,01,02,50,METAR ENGM 010250Z 00000KT CAVOK M10/M11 Q1002=
ENGM,2022,02,01,03,20,METAR ENGM 010320Z 00000KT 9999 FEW049 M10/M12 Q1001=
ENGM,2022,02,01,03,50,METAR ENGM 010350Z VRB02KT CAVOK M10/M12 Q1001=
ENGM,2022,02,01,04,20,METAR ENGM 010420Z 00000KT 9999 FEW006 SCT041 M11/M13 Q1000=
ENGM,2022,02,01,04,50,METAR ENGM 010450Z 00000KT 9999 FEW048 M12/M13 Q1000 NOSIG=
ENGM,2022,02,01,05,20,METAR ENGM 010520Z 00000KT CAVOK M11/M13 Q0999 NOSIG=
ENGM,2022,02,01,05,50,METAR ENGM 010550Z 00000KT 9999 FEW006 M12/M13 Q0998 NOSIG=
ENGM,2022,02,01,06,20,METAR ENGM 010620Z 00000KT 9999 FEW007 BKN220 M11/M12 Q0998 NOSIG=
ENGM,2022,02,01,06,50,METAR ENGM 010650Z VRB02KT 9999 SCT003 BKN150 M11/M13 Q0998 TEMPO 2000 BCFG BKN002=
ENGM,2022,02,01,07,20,METAR ENGM 010720Z 01003KT 9999 SCT002 BKN004 M11/M12 Q0998 TEMPO 2000 BCFG BKN002=
ENGM,2022,02,01,07,50,METAR ENGM 010750Z VRB02KT 9999 4000N BCFG BKN002 M11/M12 Q0997 TEMPO 2000 BCFG=
ENGM,2022,02,01,08,20,METAR ENGM 010820Z 00000KT 6000 0750NE R19R/P2000N R01R/2000D R19L/1200D R01L/P2000N BCFG OVC001 M10/M11 Q0996 TEMPO 1200 BCFG=
ENGM,2022,02,01,08,50,METAR ENGM 010850Z VRB02KT 1300 0500NW R19R/1200D R01R/0900U R19L/1100U R01L/P2000N BCFG SCT002 BKN004 M10/M11 Q0995 TEMPO 3000 BCFG BKN002=
ENGM,2022,02,01,09,20,METAR ENGM 010920Z 35002KT 8000 1500NW R19R/1100U R01R/P2000N R19L/P2000N R01L/P2000N BCFG FEW001 SCT004 BKN100 M10/M11 Q0995 NOSIG=
ENGM,2022,02,01,09,50,METAR ENGM 010950Z 36001KT 8000 3000NW R19R/1300U R01R/P2000N R19L/P2000N R01L/P2000N VCFG FEW001 SCT010 BKN100 M09/M10 Q0994 NOSIG=
ENGM,2022,02,01,10,20,METAR ENGM 011020Z 33001KT 9999 1800NW VCFG FEW002 BKN010 M09/M10 Q0993 TEMPO BKN008=
ENGM,2022,02,01,10,50,METAR ENGM 011050Z VRB02KT 9999 FEW002 BKN008 M09/M10 Q0993 NOSIG=
ENGM,2022,02,01,11,20,METAR ENGM 011120Z 03003KT 330V120 9999 BKN007 M08/M09 Q0993 BECMG 4000 -SN=
ENGM,2022,02,01,11,50,METAR ENGM 011150Z 02004KT 350V080 9999 -SN BKN007 M08/M09 Q0992 BECMG 3000 -SN=
ENGM,2022,02,01,12,20,METAR ENGM 011220Z 02003KT 350V100 2700 -SN BKN007 M07/M08 Q0992 TEMPO 1400 -SN=
ENGM,2022,02,01,12,50,METAR ENGM 011250Z 01005KT 350V060 2400 -SN FEW012 BKN017 M07/M08 Q0991 TEMPO 1200 SN VV008=
ENGM,2022,02,01,13,20,METAR ENGM 011320Z 35003KT 300V030 1500 -SN BKN021 M07/M08 Q0991 TEMPO 1200 -SN VV012=
ENGM,2022,02,01,13,50,METAR ENGM 011350Z 33003KT 300V360 1400 R19R/1900D R01R/P2000N R19L/P2000N R01L/1700D -SN FEW016 BKN019 M07/M08 Q0991 TEMPO 2000 -SN VV012=
ENGM,2022,02,01,14,20,METAR ENGM 011420Z 35004KT 2400 -SN SCT033 BKN038 M07/M08 Q0991 TEMPO 1400 -SN VV012=
ENGM,2022,02,01,14,50,METAR ENGM 011450Z 35003KT 3600 -SN FEW026 BKN042 M07/M08 Q0991 TEMPO 2000 -SN OVC014=
ENGM,2022,02,01,15,20,METAR ENGM 011520Z 36004KT 1800 -SN SCT023 BKN027 M07/M08 Q0990 TEMPO 1200 -SN OVC014=
ENGM,2022,02,01,15,50,METAR ENGM 011550Z 03005KT 010V080 1800 -SN BR FEW017 SCT021 BKN038 M07/M08 Q0990 TEMPO 1200 -SN OVC014=
ENGM,2022,02,01,16,20,METAR ENGM 011620Z 02003KT 330V070 5000 -SN BKN040 M07/M08 Q0990 TEMPO 2000 -SN OVC014=
ENGM,2022,02,01,16,50,METAR ENGM 011650Z 34002KT 3000 -SN SCT026 BKN031 M06/M07 Q0990 TEMPO 1200 -SN OVC012=
ENGM,2022,02,01,17,20,METAR ENGM 011720Z 01003KT 340V100 4400 -SN BKN029 M06/M07 Q0990 TEMPO 2000 -SN OVC012=
ENGM,2022,02,01,17,50,METAR ENGM 011750Z VRB02KT 3500 -SN BKN028 M06/M07 Q0990 TEMPO 2000 -SN OVC012=
ENGM,2022,02,01,18,20,METAR ENGM 011820Z VRB02KT 2600 -SN FEW020 BKN029 M06/M07 Q0990 TEMPO 1200 -SN OVC012=
ENGM,2022,02,01,18,50,METAR ENGM 011850Z VRB02KT 4200 -SN FEW034 OVC042 M06/M07 Q0990 TEMPO 1200 -SN OVC012=
ENGM,2022,02,01,19,20,METAR ENGM 011920Z VRB02KT 3200 -SN BKN029 BKN035 M06/M07 Q0991 TEMPO 2000 -SN=
ENGM,2022,02,01,19,50,METAR ENGM 011950Z 02004KT 360V110 3200 -SN FEW017 OVC025 M06/M07 Q0991 TEMPO 2000 -SN BKN014=
ENGM,2022,02,01,20,20,METAR ENGM 012020Z 03003KT 2500 -SN FEW014 OVC021 M06/M07 Q0991 TEMPO 1200 -SN BKN014=
ENGM,2022,02,01,20,50,METAR ENGM 012050Z 05003KT 020V100 3000 -SN FEW016 OVC019 M06/M06 Q0992 TEMPO 1200 -SN OVC014=
ENGM,2022,02,01,21,20,METAR ENGM 012120Z 06004KT 3000 -SN FEW014 OVC020 M05/M06 Q0992 TEMPO 1200 -SN OVC014=
ENGM,2022,02,01,21,50,METAR ENGM 012150Z 09005KT 050V120 3000 -SN OVC032 M05/M07 Q0992 TEMPO 1200 -SN OVC014=
ENGM,2022,02,01,22,20,METAR ENGM 012220Z 03004KT 6000 -SN FEW011 BKN013 M06/M07 Q0993=
ENGM,2022,02,01,22,50,METAR ENGM 012250Z 02006KT 8000 -SN FEW010 OVC018 M06/M07 Q0994=
ENGM,2022,02,01,23,20,METAR ENGM 012320Z 01006KT 8000 -SN OVC019 M06/M07 Q0994=
ENGM,2022,02,01,23,50,METAR ENGM 012350Z 02006KT 9999 -SN OVC021 M06/M07 Q0995=
