ENBO,2022,01,28,14,20,METAR ENBO 281420Z 35012KT 9999 FEW018 SCT025TCU BKN040 M00/M05 Q1005=
ENBO,2022,01,28,14,50,METAR ENBO 281450Z 01008KT 340V040 9999 FEW018 SCT030 BKN040 M00/M06 Q1005=
ENBO,2022,01,28,15,20,METAR ENBO 281520Z 01004KT 330V040 9999 FEW025 SCT040 M01/M06 Q1005=
ENBO,2022,01,28,15,50,METAR ENBO 281550Z VRB02KT 9999 FEW037 SCT045 M03/M07 Q1004=
ENBO,2022,01,28,16,20,METAR ENBO 281620Z 12003KT 9999 SCT040 M03/M07 Q1004=
ENBO,2022,01,28,16,50,METAR ENBO 281650Z 11003KT 9999 SCT040 M05/M07 Q1004=
ENBO,2022,01,28,17,20,METAR ENBO 281720Z 09006KT 9999 SCT040 M04/M07 Q1003=
ENBO,2022,01,28,17,50,METAR ENBO 281750Z 09009KT 9999 FEW040 M04/M07 Q1002=
ENBO,2022,01,28,18,20,METAR ENBO 281820Z 08008KT 9999 FEW040 M04/M07 Q1002=
ENBO,2022,01,28,18,50,METAR ENBO 281850Z 08011KT 9999 FEW040 M04/M07 Q1001=
ENBO,2022,01,28,19,20,METAR ENBO 281920Z 09014KT CAVOK M04/M07 Q1000=
ENBO,2022,01,28,19,50,METAR ENBO 281950Z 09015KT CAVOK M03/M07 Q1000=
ENBO,2022,01,28,20,20,METAR ENBO 282020Z 09019KT CAVOK M03/M06 Q0999=
ENBO,2022,01,28,20,50,METAR ENBO 282050Z 09018KT CAVOK M03/M07 Q0997=
ENBO,2022,01,28,21,20,METAR ENBO 282120Z 09018KT CAVOK M03/M07 Q0997=
ENBO,2022,01,28,21,50,METAR ENBO 282150Z 09021KT CAVOK M03/M07 Q0996=
ENBO,2022,01,28,22,20,METAR ENBO 282220Z 09022KT CAVOK M02/M07 Q0995=
ENBO,2022,01,28,22,50,METAR ENBO 282250Z 09021KT CAVOK M02/M07 Q0994=
ENBO,2022,01,28,23,20,METAR ENBO 282320Z 09025KT CAVOK M02/M07 Q0993=
ENBO,2022,01,28,23,50,METAR ENBO 282350Z 09024KT CAVOK M02/M07 Q0992=
ENBO,2022,01,29,00,20,METAR ENBO 290020Z 09028KT CAVOK M02/M07 Q0990=
ENBO,2022,01,29,00,50,METAR ENBO 290050Z AUTO 09029KT 7000 NCD M02/M07 Q0989=
ENBO,2022,01,29,01,20,METAR ENBO 290120Z AUTO 09029KT 4300 FEW070/// M02/M07 Q0987=
ENBO,2022,01,29,01,50,METAR ENBO 290150Z 09030KT CAVOK M02/M06 Q0986=
ENBO,2022,01,29,02,20,METAR ENBO 290220Z 09030KT CAVOK M02/M06 Q0985=
ENBO,2022,01,29,02,50,METAR ENBO 290250Z 10026G38KT CAVOK M01/M05 Q0985=
ENBO,2022,01,29,03,20,METAR ENBO 290320Z 10027KT 9999 FEW043 SCT062 M00/M06 Q0984=
ENBO,2022,01,29,03,50,METAR ENBO 290350Z AUTO 10026KT 9999 SCT025/// BKN044/// M00/M05 Q0983=
ENBO,2022,01,29,04,20,METAR ENBO 290420Z 09027KT 9999 FEW022 SCT031 BKN038 M01/M05 Q0982=
ENBO,2022,01,29,04,50,METAR ENBO 290450Z 10025KT 9999 BKN040 M01/M05 Q0981=
ENBO,2022,01,29,05,20,METAR ENBO 290520Z 10026G36KT 9999 SCT066 M00/M04 Q0980=
ENBO,2022,01,29,05,50,METAR ENBO 290550Z 10028G38KT 9999 BKN020 BKN034 OVC041 M00/M04 Q0979=
ENBO,2022,01,29,06,20,METAR ENBO 290620Z 11028G39KT 4500 -SN VV014 M00/M04 Q0979=
ENBO,2022,01,29,06,50,METAR ENBO 290650Z 11029KT 0800 +SN VV004 M02/M03 Q0978=
ENBO,2022,01,29,07,20,METAR ENBO 290720Z 10031G41KT 0400 +SN VV005 M02/M03 Q0978=
ENBO,2022,01,29,07,50,METAR ENBO 290750Z 10031KT 2000 SN VV009 M02/M03 Q0977=
ENBO,2022,01,29,08,20,METAR ENBO 290820Z 10031KT 9999 -SN FEW006 SCT017 BKN038 M02/M03 Q0977=
ENBO,2022,01,29,08,50,METAR ENBO 290850Z 10032KT 9999 VCSH FEW015 SCT020 BKN050 M01/M04 Q0977=
ENBO,2022,01,29,09,20,METAR ENBO 290920Z 10031KT 9999 BLSN FEW025 BKN045 M01/M04 Q0977=
ENBO,2022,01,29,09,50,METAR ENBO 290950Z 10031KT 9999 BLSN FEW030 BKN045 M01/M05 Q0976=
ENBO,2022,01,29,10,20,METAR ENBO 291020Z 10029KT 9999 BLSN BKN045 M01/M05 Q0976=
ENBO,2022,01,29,10,50,METAR ENBO 291050Z 10029KT 9999 DRSN VCSH BKN045 M00/M06 Q0976=
ENBO,2022,01,29,11,20,METAR ENBO 291120Z 10027KT 9999 DRSN SHSN FEW010 SCT030 BKN065 M01/M05 Q0976=
ENBO,2022,01,29,11,50,METAR ENBO 291150Z 10027KT 9999 -SHSN FEW010 SCT023 BKN080 M01/M05 Q0976=
ENBO,2022,01,29,12,20,METAR ENBO 291220Z 10028KT 9999 -SHSN FEW012 SCT020 BKN040 M02/M05 Q0976=
ENBO,2022,01,29,12,50,METAR ENBO 291250Z 09028KT 9999 DRSN VCSH FEW025 SCT038 M02/M05 Q0976=
ENBO,2022,01,29,13,20,METAR ENBO 291320Z 09031KT 9999 DRSN VCSH FEW025 SCT040 M02/M05 Q0976=
ENBO,2022,01,29,13,50,METAR ENBO 291350Z 09027KT 9999 FEW030 BKN040 M02/M05 Q0976=
ENBO,2022,01,29,14,20,METAR ENBO 291420Z 09026KT 7000 FEW030 BKN040 M02/M06 Q0976=
